[{"OBJECT_NAME":"STARLINK-11385 [DTC]","OBJECT_ID":"2024-213G","EPOCH":"2025-12-28T01:35:50.286336","MEAN_MOTION":15.69814628,"ECCENTRICITY":0.00035567,"INCLINATION":53.1566,"RA_OF_ASC_NODE":34.5103,"ARG_OF_PERICENTER":88.4437,"MEAN_ANOMALY":271.6988,"EPHEMERIS_TYPE":0,"CLASSIFICATION_TYPE":"U","NORAD_CAT_ID":62014,"ELEMENT_SET_NO":999,"REV_AT_EPOCH":6366,"BSTAR":0.0018453519,"MEAN_MOTION_DOT":0.00230317,"MEAN_MOTION_DDOT":0},{"OBJECT_NAME":"STARLINK-11396 [DTC]","OBJECT_ID":"2024-213H","EPOCH":"2025-12-28T02:18:04.341312","MEAN_MOTION":15.69859968,"ECCENTRICITY":0.00020892,"INCLINATION":53.1562,"RA_OF_ASC_NODE":33.967,"ARG_OF_PERICENTER":101.6738,"MEAN_ANOMALY":258.4514,"EPHEMERIS_TYPE":0,"CLASSIFICATION_TYPE":"U","NORAD_CAT_ID":62015,"ELEMENT_SET_NO":999,"REV_AT_EPOCH":6367,"BSTAR":0.0025726859,"MEAN_MOTION_DOT":0.00325651,"MEAN_MOTION_DDOT":0},{"OBJECT_NAME":"STARLINK-11393 [DTC]","OBJECT_ID":"2024-213J","EPOCH":"2025-12-28T06:46:03.480672","MEAN_MOTION":15.69764419,"ECCENTRICITY":0.0001277,"INCLINATION":53.1573,"RA_OF_ASC_NODE":32.992,"ARG_OF_PERICENTER":63.5277,"MEAN_ANOMALY":296.5872,"EPHEMERIS_TYPE":0,"CLASSIFICATION_TYPE":"U","NORAD_CAT_ID":62016,"ELEMENT_SET_NO":999,"REV_AT_EPOCH":6370,"BSTAR":0.0017971198,"MEAN_MOTION_DOT":0.00223602,"MEAN_MOTION_DDOT":0},{"OBJECT_NAME":"STARLINK-11343 [DTC]","OBJECT_ID":"2024-213K","EPOCH":"2025-12-28T03:00:27.131328","MEAN_MOTION":15.69831756,"ECCENTRICITY":0.00010182,"INCLINATION":53.1564,"RA_OF_ASC_NODE":34.1635,"ARG_OF_PERICENTER":110.2602,"MEAN_ANOMALY":249.8525,"EPHEMERIS_TYPE":0,"CLASSIFICATION_TYPE":"U","NORAD_CAT_ID":62017,"ELEMENT_SET_NO":999,"REV_AT_EPOCH":6367,"BSTAR":0.0025029794,"MEAN_MOTION_DOT":0.00316079,"MEAN_MOTION_DDOT":0},{"OBJECT_NAME":"STARLINK-11411 [DTC]","OBJECT_ID":"2024-213L","EPOCH":"2025-12-28T07:21:22.491648","MEAN_MOTION":15.69798904,"ECCENTRICITY":0.00012844,"INCLINATION":53.1567,"RA_OF_ASC_NODE":33.1573,"ARG_OF_PERICENTER":72.4026,"MEAN_ANOMALY":287.7132,"EPHEMERIS_TYPE":0,"CLASSIFICATION_TYPE":"U","NORAD_CAT_ID":62018,"ELEMENT_SET_NO":999,"REV_AT_EPOCH":6370,"BSTAR":0.0018125063,"MEAN_MOTION_DOT":0.00225908,"MEAN_MOTION_DDOT":0},{"OBJECT_NAME":"STARLINK-11404 [DTC]","OBJECT_ID":"2024-213M","EPOCH":"2025-12-28T06:32:04.452864","MEAN_MOTION":15.69762338,"ECCENTRICITY":0.00015921,"INCLINATION":53.1572,"RA_OF_ASC_NODE":33.662,"ARG_OF_PERICENTER":103.1157,"MEAN_ANOMALY":257.0039,"EPHEMERIS_TYPE":0,"CLASSIFICATION_TYPE":"U","NORAD_CAT_ID":62019,"ELEMENT_SET_NO":999,"REV_AT_EPOCH":6369,"BSTAR":0.0023788569,"MEAN_MOTION_DOT":0.00298877,"MEAN_MOTION_DDOT":0},{"OBJECT_NAME":"STARLINK-11378 [DTC]","OBJECT_ID":"2024-213N","EPOCH":"2025-12-28T06:38:59.495136","MEAN_MOTION":15.69774192,"ECCENTRICITY":0.00010658,"INCLINATION":53.1579,"RA_OF_ASC_NODE":32.9575,"ARG_OF_PERICENTER":100.0628,"MEAN_ANOMALY":260.0511,"EPHEMERIS_TYPE":0,"CLASSIFICATION_TYPE":"U","NORAD_CAT_ID":62020,"ELEMENT_SET_NO":999,"REV_AT_EPOCH":6370,"BSTAR":0.0019825522,"MEAN_MOTION_DOT":0.00247557,"MEAN_MOTION_DDOT":0},{"OBJECT_NAME":"STARLINK-32520","OBJECT_ID":"2024-213P","EPOCH":"2025-12-28T03:01:36.677280","MEAN_MOTION":15.30223919,"ECCENTRICITY":0.00016097,"INCLINATION":53.1597,"RA_OF_ASC_NODE":140.848,"ARG_OF_PERICENTER":81.1254,"MEAN_ANOMALY":278.9929,"EPHEMERIS_TYPE":0,"CLASSIFICATION_TYPE":"U","NORAD_CAT_ID":62021,"ELEMENT_SET_NO":999,"REV_AT_EPOCH":6219,"BSTAR":0.0011234137,"MEAN_MOTION_DOT":0.00033086,"MEAN_MOTION_DDOT":0},{"OBJECT_NAME":"STARLINK-32539","OBJECT_ID":"2024-213Q","EPOCH":"2025-12-28T01:44:57.070464","MEAN_MOTION":15.30199078,"ECCENTRICITY":0.00028129,"INCLINATION":53.1597,"RA_OF_ASC_NODE":128.2647,"ARG_OF_PERICENTER":75.3633,"MEAN_ANOMALY":284.768,"EPHEMERIS_TYPE":0,"CLASSIFICATION_TYPE":"U","NORAD_CAT_ID":62022,"ELEMENT_SET_NO":999,"REV_AT_EPOCH":6236,"BSTAR":0.00083265795,"MEAN_MOTION_DOT":0.00024383,"MEAN_MOTION_DDOT":0},{"OBJECT_NAME":"STARLINK-32334","OBJECT_ID":"2024-213R","EPOCH":"2025-12-28T04:49:09.381792","MEAN_MOTION":15.30226887,"ECCENTRICITY":0.00010732,"INCLINATION":53.1571,"RA_OF_ASC_NODE":139.8872,"ARG_OF_PERICENTER":106.292,"MEAN_ANOMALY":253.8199,"EPHEMERIS_TYPE":0,"CLASSIFICATION_TYPE":"U","NORAD_CAT_ID":62023,"ELEMENT_SET_NO":999,"REV_AT_EPOCH":6221,"BSTAR":0.00072680578,"MEAN_MOTION_DOT":0.00021246,"MEAN_MOTION_DDOT":0},{"OBJECT_NAME":"STARLINK-32504","OBJECT_ID":"2024-213S","EPOCH":"2025-12-28T02:05:22.312320","MEAN_MOTION":15.30216744,"ECCENTRICITY":9.398e-5,"INCLINATION":53.1568,"RA_OF_ASC_NODE":140.6078,"ARG_OF_PERICENTER":71.0015,"MEAN_ANOMALY":289.1088,"EPHEMERIS_TYPE":0,"CLASSIFICATION_TYPE":"U","NORAD_CAT_ID":62024,"ELEMENT_SET_NO":999,"REV_AT_EPOCH":6219,"BSTAR":0.0013253494,"MEAN_MOTION_DOT":0.00039121,"MEAN_MOTION_DDOT":0},{"OBJECT_NAME":"STARLINK-32493","OBJECT_ID":"2024-213T","EPOCH":"2025-12-28T02:52:30.315648","MEAN_MOTION":15.30189712,"ECCENTRICITY":0.00014089,"INCLINATION":53.1602,"RA_OF_ASC_NODE":140.8101,"ARG_OF_PERICENTER":78.1948,"MEAN_ANOMALY":281.9211,"EPHEMERIS_TYPE":0,"CLASSIFICATION_TYPE":"U","NORAD_CAT_ID":62025,"ELEMENT_SET_NO":999,"REV_AT_EPOCH":6219,"BSTAR":0.0012893114,"MEAN_MOTION_DOT":0.0003801,"MEAN_MOTION_DDOT":0},{"OBJECT_NAME":"STARLINK-32561","OBJECT_ID":"2024-213U","EPOCH":"2025-12-27T15:16:06.803904","MEAN_MOTION":15.30212879,"ECCENTRICITY":8.107e-5,"INCLINATION":53.1584,"RA_OF_ASC_NODE":142.7681,"ARG_OF_PERICENTER":91.6202,"MEAN_ANOMALY":268.4892,"EPHEMERIS_TYPE":0,"CLASSIFICATION_TYPE":"U","NORAD_CAT_ID":62026,"ELEMENT_SET_NO":999,"REV_AT_EPOCH":6212,"BSTAR":0.00077737573,"MEAN_MOTION_DOT":0.00022744,"MEAN_MOTION_DDOT":0},{"OBJECT_NAME":"STARLINK-32512","OBJECT_ID":"2024-213V","EPOCH":"2025-12-27T16:27:21.403296","MEAN_MOTION":15.30170512,"ECCENTRICITY":0.00011119,"INCLINATION":53.1574,"RA_OF_ASC_NODE":142.3646,"ARG_OF_PERICENTER":88.1524,"MEAN_ANOMALY":271.9604,"EPHEMERIS_TYPE":0,"CLASSIFICATION_TYPE":"U","NORAD_CAT_ID":62027,"ELEMENT_SET_NO":999,"REV_AT_EPOCH":6213,"BSTAR":0.0012736233,"MEAN_MOTION_DOT":0.00037518,"MEAN_MOTION_DDOT":0},{"OBJECT_NAME":"STARLINK-32637","OBJECT_ID":"2024-216A","EPOCH":"2025-12-28T04:18:26.138880","MEAN_MOTION":15.27602723,"ECCENTRICITY":0.00011794,"INCLINATION":42.9957,"RA_OF_ASC_NODE":299.7868,"ARG_OF_PERICENTER":273.6802,"MEAN_ANOMALY":86.3915,"EPHEMERIS_TYPE":0,"CLASSIFICATION_TYPE":"U","NORAD_CAT_ID":62032,"ELEMENT_SET_NO":999,"REV_AT_EPOCH":6294,"BSTAR":0.0012914739,"MEAN_MOTION_DOT":0.00035472,"MEAN_MOTION_DDOT":0},{"OBJECT_NAME":"STARLINK-32582","OBJECT_ID":"2024-216B","EPOCH":"2025-12-28T05:10:41.672640","MEAN_MOTION":15.27619088,"ECCENTRICITY":0.00016889,"INCLINATION":43.0023,"RA_OF_ASC_NODE":306.9778,"ARG_OF_PERICENTER":272.8193,"MEAN_ANOMALY":87.2466,"EPHEMERIS_TYPE":0,"CLASSIFICATION_TYPE":"U","NORAD_CAT_ID":62033,"ELEMENT_SET_NO":999,"REV_AT_EPOCH":6286,"BSTAR":0.0016130454,"MEAN_MOTION_DOT":0.00044447,"MEAN_MOTION_DDOT":0}]
