STARLINK-11385 [DTC]    
1 62014U 24213G   25362.06655424  .00230317  00000+0  18454-2 0  9994
2 62014  53.1566  34.5103 0003556  88.4437 271.6988 15.69814628 63662
STARLINK-11396 [DTC]    
1 62015U 24213H   25362.09588358  .00325651  00000+0  25727-2 0  9996
2 62015  53.1562  33.9670 0002089 101.6738 258.4514 15.69859968 63678
STARLINK-11393 [DTC]    
1 62016U 24213J   25362.28198473  .00223602  00000+0  17971-2 0  9998
2 62016  53.1573  32.9920 0001277  63.5277 296.5872 15.69764419 63700
STARLINK-11343 [DTC]    
1 62017U 24213K   25362.12531402  .00316079  00000+0  25030-2 0  9991
2 62017  53.1564  34.1635 0001018 110.2602 249.8525 15.69831756 63674
STARLINK-11411 [DTC]    
1 62018U 24213L   25362.30651032  .00225908  00000+0  18125-2 0  9991
2 62018  53.1567  33.1573 0001284  72.4026 287.7132 15.69798904 63708
STARLINK-11404 [DTC]    
1 62019U 24213M   25362.27227376  .00298877  00000+0  23789-2 0  9995
2 62019  53.1572  33.6620 0001592 103.1157 257.0039 15.69762338 63698
STARLINK-11378 [DTC]    
1 62020U 24213N   25362.27707749  .00247557  00000+0  19826-2 0  9990
2 62020  53.1579  32.9575 0001065 100.0628 260.0511 15.69774192 63704
STARLINK-32520          
1 62021U 24213P   25362.12611895  .00033086  00000+0  11234-2 0  9996
2 62021  53.1597 140.8480 0001609  81.1254 278.9929 15.30223919 62194
STARLINK-32539          
1 62022U 24213Q   25362.07288276  .00024383  00000+0  83266-3 0  9999
2 62022  53.1597 128.2647 0002812  75.3633 284.7680 15.30199078 62369
STARLINK-32334          
1 62023U 24213R   25362.20080303  .00021246  00000+0  72681-3 0  9990
2 62023  53.1571 139.8872 0001073 106.2920 253.8199 15.30226887 62216
STARLINK-32504          
1 62024U 24213S   25362.08706380  .00039121  00000+0  13253-2 0  9997
2 62024  53.1568 140.6078 0000939  71.0015 289.1088 15.30216744 62192
STARLINK-32493          
1 62025U 24213T   25362.11979532  .00038010  00000+0  12893-2 0  9998
2 62025  53.1602 140.8101 0001408  78.1948 281.9211 15.30189712 62198
STARLINK-32561          
1 62026U 24213U   25361.63618986  .00022744  00000+0  77738-3 0  9995
2 62026  53.1584 142.7681 0000810  91.6202 268.4892 15.30212879 62120
STARLINK-32512          
1 62027U 24213V   25361.68566439  .00037518  00000+0  12736-2 0  9997
2 62027  53.1574 142.3646 0001111  88.1524 271.9604 15.30170512 62138
STARLINK-32637          
1 62032U 24216A   25362.17946920  .00035472  00000+0  12915-2 0  9994
2 62032  42.9957 299.7868 0001179 273.6802  86.3915 15.27602723 62944
STARLINK-32582          
1 62033U 24216B   25362.21576010  .00044447  00000+0  16130-2 0  9994
2 62033  43.0023 306.9778 0001688 272.8193  87.2466 15.27619088 62865
